ORBCOMM FM115           
1 41186U 15081H   25107.79302518  .00001491  00000+0  32647-3 0  9994
2 41186  46.9996 326.7687 0000547 176.7444 183.3447 14.62368036498935
ORBCOMM FM108           
1 41187U 15081J   25107.87062288  .00002008  00000+0  46917-3 0  9991
2 41187  47.0055  31.7941 0002576  22.4570 337.6428 14.58010950497993
ORBCOMM FM117           
1 41188U 15081K   25107.83691296  .00001983  00000+0  46371-3 0  9990
2 41188  47.0017  30.7360 0002908  31.5124 328.5936 14.58018252498033
ORBCOMM FM116           
1 41189U 15081L   25106.31997542  .00001361  00000+0  32606-3 0  9992
2 41189  47.0007 127.7626 0000953 226.9459 133.1346 14.58551445496695
